[{"OBJECT_NAME":"STARLINK-35897","OBJECT_ID":"2025-263S","EPOCH":"2026-03-09T04:48:41.635296","MEAN_MOTION":15.2760485,"ECCENTRICITY":0.00016606,"INCLINATION":42.9993,"RA_OF_ASC_NODE":353.503,"ARG_OF_PERICENTER":284.9559,"MEAN_ANOMALY":75.1109,"EPHEMERIS_TYPE":0,"CLASSIFICATION_TYPE":"U","NORAD_CAT_ID":66501,"ELEMENT_SET_NO":999,"REV_AT_EPOCH":1882,"BSTAR":0.0013319962,"MEAN_MOTION_DOT":0.00036602,"MEAN_MOTION_DDOT":0},{"OBJECT_NAME":"COSMOS 1758","OBJECT_ID":"1986-046A","EPOCH":"2026-03-09T22:23:33.220896","MEAN_MOTION":15.25706639,"ECCENTRICITY":0.00131526,"INCLINATION":82.4607,"RA_OF_ASC_NODE":143.3203,"ARG_OF_PERICENTER":337.3781,"MEAN_ANOMALY":22.6875,"EPHEMERIS_TYPE":0,"CLASSIFICATION_TYPE":"U","NORAD_CAT_ID":16791,"ELEMENT_SET_NO":999,"REV_AT_EPOCH":16610,"BSTAR":0.00027304427,"MEAN_MOTION_DOT":7.006e-5,"MEAN_MOTION_DDOT":0}]
